{
  "norad_id": 54663,
  "name": "ONEWEB-0597",
  "history": [
    {
      "epoch": "2026-03-28T21:33:05.393376Z",
      "apogee_km": 1178.974958732305,
      "perigee_km": 1176.547097577899,
      "latitude_deg": -3.392291069715438e-05,
      "longitude_deg": 110.40560186783684,
      "height_km": 1180.8699658706246,
      "semi_major_axis_km": 7555.898028155102,
      "eccentricity": 0.00016066,
      "inclination_deg": 87.917,
      "raan_deg": 259.9899,
      "arg_perigee_deg": 99.8101,
      "mean_anomaly_deg": 260.3214,
      "mean_motion_rev_day": 13.2182399
    },
    {
      "epoch": "2026-03-29T04:49:06.076128Z",
      "apogee_km": 1178.9736220423101,
      "perigee_km": 1176.5451569427278,
      "latitude_deg": -3.4697541338009246e-05,
      "longitude_deg": 1.0437179175684506,
      "height_km": 1180.8698307680158,
      "semi_major_axis_km": 7555.896389492519,
      "eccentricity": 0.0001607,
      "inclination_deg": 87.917,
      "raan_deg": 259.9293,
      "arg_perigee_deg": 99.8796,
      "mean_anomaly_deg": 260.2519,
      "mean_motion_rev_day": 13.2182442
    },
    {
      "epoch": "2026-03-30T04:26:08.364192Z",
      "apogee_km": 1178.967560991462,
      "perigee_km": 1176.549221112603,
      "latitude_deg": -4.167677500620027e-05,
      "longitude_deg": 5.61765654661173,
      "height_km": 1180.8745263115436,
      "semi_major_axis_km": 7555.895391052032,
      "eccentricity": 0.00016003,
      "inclination_deg": 87.917,
      "raan_deg": 259.7327,
      "arg_perigee_deg": 100.1946,
      "mean_anomaly_deg": 259.9368,
      "mean_motion_rev_day": 13.21824682
    },
    {
      "epoch": "2026-03-30T11:42:09.122112Z",
      "apogee_km": 1178.974101615493,
      "perigee_km": 1176.5454852681441,
      "latitude_deg": 8.363933325702678e-05,
      "longitude_deg": -103.74443661096612,
      "height_km": 1180.8773201149468,
      "semi_major_axis_km": 7555.896793441818,
      "eccentricity": 0.00016071,
      "inclination_deg": 87.9172,
      "raan_deg": 259.6722,
      "arg_perigee_deg": 100.2191,
      "mean_anomaly_deg": 259.9125,
      "mean_motion_rev_day": 13.21824314
    },
    {
      "epoch": "2026-03-30T22:36:10.148832Z",
      "apogee_km": 1178.979574404596,
      "perigee_km": 1176.5379622460187,
      "latitude_deg": 7.304903864678116e-06,
      "longitude_deg": 92.21292434559741,
      "height_km": 1180.8850957512107,
      "semi_major_axis_km": 7555.8957683253075,
      "eccentricity": 0.00016157,
      "inclination_deg": 87.9173,
      "raan_deg": 259.5815,
      "arg_perigee_deg": 100.5839,
      "mean_anomaly_deg": 259.5477,
      "mean_motion_rev_day": 13.21824583
    },
    {
      "epoch": "2026-03-31T16:46:11.871264Z",
      "apogee_km": 1178.9904488618677,
      "perigee_km": 1176.5257158859977,
      "latitude_deg": 5.508830552126846e-05,
      "longitude_deg": 178.80835218399008,
      "height_km": 1180.893495918705,
      "semi_major_axis_km": 7555.895082373932,
      "eccentricity": 0.0001631,
      "inclination_deg": 87.9174,
      "raan_deg": 259.4302,
      "arg_perigee_deg": 100.9147,
      "mean_anomaly_deg": 259.2171,
      "mean_motion_rev_day": 13.21824763
    },
    {
      "epoch": "2026-04-01T18:12:14.330880Z",
      "apogee_km": 1178.9940209903616,
      "perigee_km": 1176.5217321867403,
      "latitude_deg": -6.0977841914842125e-05,
      "longitude_deg": 156.04176299903781,
      "height_km": 1180.9076844606964,
      "semi_major_axis_km": 7555.894876588551,
      "eccentricity": 0.0001636,
      "inclination_deg": 87.9176,
      "raan_deg": 259.2184,
      "arg_perigee_deg": 101.5602,
      "mean_anomaly_deg": 258.5715,
      "mean_motion_rev_day": 13.21824817
    },
    {
      "epoch": "2026-04-02T17:49:16.652640Z",
      "apogee_km": 1178.951616504437,
      "perigee_km": 1176.5639537523357,
      "latitude_deg": -2.646720871029946e-05,
      "longitude_deg": 160.61546254123596,
      "height_km": 1180.9009562122712,
      "semi_major_axis_km": 7555.894785128386,
      "eccentricity": 0.000158,
      "inclination_deg": 87.9176,
      "raan_deg": 259.0217,
      "arg_perigee_deg": 101.6461,
      "mean_anomaly_deg": 258.485,
      "mean_motion_rev_day": 13.21824841
    },
    {
      "epoch": "2026-04-02T17:49:16.653504Z",
      "apogee_km": 1178.9514615750995,
      "perigee_km": 1176.5641010599938,
      "latitude_deg": 7.630447337035097e-05,
      "longitude_deg": 160.61546264927824,
      "height_km": 1180.9009067985178,
      "semi_major_axis_km": 7555.894781317546,
      "eccentricity": 0.00015798,
      "inclination_deg": 87.9176,
      "raan_deg": 259.0217,
      "arg_perigee_deg": 101.6461,
      "mean_anomaly_deg": 258.4851,
      "mean_motion_rev_day": 13.21824842
    },
    {
      "epoch": "2026-04-03T17:26:20.084640Z",
      "apogee_km": 1179.0361461797866,
      "perigee_km": 1176.550245145414,
      "latitude_deg": -7.614716750053811e-05,
      "longitude_deg": 165.18451968163743,
      "height_km": 1180.9395761436133,
      "semi_major_axis_km": 7555.9301956626,
      "eccentricity": 0.0001645,
      "inclination_deg": 87.918,
      "raan_deg": 258.825,
      "arg_perigee_deg": 101.3361,
      "mean_anomaly_deg": 258.7957,
      "mean_motion_rev_day": 13.21815549
    },
    {
      "epoch": "2026-04-04T04:20:21.456096Z",
      "apogee_km": 1179.048075316362,
      "perigee_km": 1176.5422259779207,
      "latitude_deg": -7.926676894950468e-06,
      "longitude_deg": 1.1404448177268478,
      "height_km": 1180.9487777993324,
      "semi_major_axis_km": 7555.932150647141,
      "eccentricity": 0.00016582,
      "inclination_deg": 87.9181,
      "raan_deg": 258.7343,
      "arg_perigee_deg": 101.5841,
      "mean_anomaly_deg": 258.5479,
      "mean_motion_rev_day": 13.21815036
    },
    {
      "epoch": "2026-04-05T11:13:25.520736Z",
      "apogee_km": 1179.0798740519995,
      "perigee_km": 1176.5489325699464,
      "latitude_deg": 2.7168272589618146e-05,
      "longitude_deg": -103.65217132999683,
      "height_km": 1180.977244759328,
      "semi_major_axis_km": 7555.951403310973,
      "eccentricity": 0.00016748,
      "inclination_deg": 87.918,
      "raan_deg": 258.477,
      "arg_perigee_deg": 101.8954,
      "mean_anomaly_deg": 258.2368,
      "mean_motion_rev_day": 13.21809984
    },
    {
      "epoch": "2026-04-05T20:18:26.741376Z",
      "apogee_km": 1179.0907835532935,
      "perigee_km": 1176.5368721734758,
      "latitude_deg": -1.707669560951224e-05,
      "longitude_deg": 119.64428722224615,
      "height_km": 1180.9872456156172,
      "semi_major_axis_km": 7555.950827863384,
      "eccentricity": 0.000169,
      "inclination_deg": 87.9182,
      "raan_deg": 258.4016,
      "arg_perigee_deg": 102.2726,
      "mean_anomaly_deg": 257.8597,
      "mean_motion_rev_day": 13.21810135
    },
    {
      "epoch": "2026-04-05T23:56:27.267648Z",
      "apogee_km": 1179.0967424281298,
      "perigee_km": 1176.5328568634732,
      "latitude_deg": 7.393365973138592e-06,
      "longitude_deg": 64.9624733345562,
      "height_km": 1180.988732132222,
      "semi_major_axis_km": 7555.951799645801,
      "eccentricity": 0.00016966,
      "inclination_deg": 87.9181,
      "raan_deg": 258.3712,
      "arg_perigee_deg": 102.2484,
      "mean_anomaly_deg": 257.884,
      "mean_motion_rev_day": 13.2180988
    },
    {
      "epoch": "2026-04-07T12:16:32.208096Z",
      "apogee_km": 1179.1157677414021,
      "perigee_km": 1176.5119870690478,
      "latitude_deg": -1.6766652430736317e-05,
      "longitude_deg": -121.85263006342477,
      "height_km": 1181.0131137664223,
      "semi_major_axis_km": 7555.950877405225,
      "eccentricity": 0.0001723,
      "inclination_deg": 87.9183,
      "raan_deg": 258.0689,
      "arg_perigee_deg": 103.2002,
      "mean_anomaly_deg": 256.9324,
      "mean_motion_rev_day": 13.21810122
    },
    {
      "epoch": "2026-04-07T12:16:32.208960Z",
      "apogee_km": 1179.1158394893428,
      "perigee_km": 1176.511907699285,
      "latitude_deg": -1.7888534774309165e-05,
      "longitude_deg": -121.85253371385247,
      "height_km": 1181.0131272147253,
      "semi_major_axis_km": 7555.950873594314,
      "eccentricity": 0.00017231,
      "inclination_deg": 87.9183,
      "raan_deg": 258.069,
      "arg_perigee_deg": 103.2002,
      "mean_anomaly_deg": 256.9324,
      "mean_motion_rev_day": 13.21810123
    },
    {
      "epoch": "2026-04-08T11:53:35.472480Z",
      "apogee_km": 1179.110782595806,
      "perigee_km": 1176.5190910814708,
      "latitude_deg": 2.5902868096401855e-05,
      "longitude_deg": -117.2825723589214,
      "height_km": 1180.9992015427715,
      "semi_major_axis_km": 7555.951936838638,
      "eccentricity": 0.0001715,
      "inclination_deg": 87.9185,
      "raan_deg": 257.8725,
      "arg_perigee_deg": 102.5838,
      "mean_anomaly_deg": 257.5488,
      "mean_motion_rev_day": 13.21809844
    },
    {
      "epoch": "2026-04-09T16:57:39.470112Z",
      "apogee_km": 1179.1245452029907,
      "perigee_km": 1176.5026303490322,
      "latitude_deg": 4.218304556310087e-05,
      "longitude_deg": 165.26489662878956,
      "height_km": 1181.012768389108,
      "semi_major_axis_km": 7555.950587776011,
      "eccentricity": 0.0001735,
      "inclination_deg": 87.9187,
      "raan_deg": 257.6304,
      "arg_perigee_deg": 103.106,
      "mean_anomaly_deg": 257.0268,
      "mean_motion_rev_day": 13.21810198
    },
    {
      "epoch": "2026-04-10T03:51:40.983264Z",
      "apogee_km": 1179.1233136014016,
      "perigee_km": 1176.5047232164616,
      "latitude_deg": 8.017180796777616e-05,
      "longitude_deg": 1.220227609939457,
      "height_km": 1181.01656926307,
      "semi_major_axis_km": 7555.951018408931,
      "eccentricity": 0.00017328,
      "inclination_deg": 87.9187,
      "raan_deg": 257.5397,
      "arg_perigee_deg": 103.2744,
      "mean_anomaly_deg": 256.8584,
      "mean_motion_rev_day": 13.21810085
    }
  ]
}